[{"OBJECT_NAME":"STARLINK-34517","OBJECT_ID":"2025-137B","EPOCH":"2026-03-09T21:29:22.672320","MEAN_MOTION":15.30211996,"ECCENTRICITY":0.00010947,"INCLINATION":53.1569,"RA_OF_ASC_NODE":334.4805,"ARG_OF_PERICENTER":107.203,"MEAN_ANOMALY":252.9091,"EPHEMERIS_TYPE":0,"CLASSIFICATION_TYPE":"U","NORAD_CAT_ID":64595,"ELEMENT_SET_NO":999,"REV_AT_EPOCH":4076,"BSTAR":0.00087225943,"MEAN_MOTION_DOT":0.00025573,"MEAN_MOTION_DDOT":0},{"OBJECT_NAME":"COSMOS 2251 DEB","OBJECT_ID":"1993-036BXP","EPOCH":"2026-03-04T07:23:49.847712","MEAN_MOTION":15.24789556,"ECCENTRICITY":0.00190834,"INCLINATION":73.9759,"RA_OF_ASC_NODE":64.3004,"ARG_OF_PERICENTER":239.4537,"MEAN_ANOMALY":120.4779,"EPHEMERIS_TYPE":0,"CLASSIFICATION_TYPE":"U","NORAD_CAT_ID":47059,"ELEMENT_SET_NO":999,"REV_AT_EPOCH":9543,"BSTAR":0.0048704033,"MEAN_MOTION_DOT":0.00123422,"MEAN_MOTION_DDOT":0}]
